FLOCK 4BE-27            
1 60513U 24149AX  26068.75339182  .00011439  00000+0  36576-3 0  9992
2 60513  97.3862 150.6783 0002732 305.8980  54.2008 15.32593322 86906
STARLINK-34771          
1 65078U 25167A   26068.15118229  .00033266  00000+0  11304-2 0  9998
2 65078  53.1615  26.6352 0001079  70.3215 289.7903 15.30197852 33430
